{
  "type": "FeatureCollection",
  "features": [
    {
      "type": "Feature",
      "properties": {
        "id": "ps_000",
        "layer": "public_space",
        "space_type": "plaza",
        "source_type": "design_model",
        "confidence": 0.8,
        "geometry_role": "design_layer",
        "area_sqm": 37952.23673560584
      },
      "geometry": {
        "type": "Polygon",
        "coordinates": [
          [
            [
              2105.263436930543,
              668.0686855020091
            ],
            [
              2101.6267485762414,
              657.9048224398401
            ],
            [
              2097.011339078319,
              648.1463589491402
            ],
            [
              2091.46165735328,
              638.8872743678437
            ],
            [
              2085.031149869901,
              630.216738741999
            ],
            [
              2077.78174593052,
              622.2182540694798
            ],
            [
              2069.783261258001,
              614.968850130099
            ],
            [
              2061.112725632156,
              608.53834264672
            ],
            [
              2051.8536410508596,
              602.988660921681
            ],
            [
              2042.09517756016,
              598.3732514237585
            ],
            [
              2031.9313144979908,
              594.736563069457
            ],
            [
              2021.4599354217742,
              592.1136191556446
            ],
            [
              2010.7818854362517,
              590.5296800660583
            ],
            [
              2000.0,
              590.0
            ],
            [
              1989.2181145637483,
              590.5296800660583
            ],
            [
              1978.5400645782258,
              592.1136191556446
            ],
            [
              1968.0686855020092,
              594.736563069457
            ],
            [
              1957.9048224398402,
              598.3732514237585
            ],
            [
              1948.1463589491402,
              602.988660921681
            ],
            [
              1938.8872743678437,
              608.53834264672
            ],
            [
              1930.216738741999,
              614.9688501300989
            ],
            [
              1922.2182540694798,
              622.2182540694798
            ],
            [
              1914.9688501300989,
              630.216738741999
            ],
            [
              1908.53834264672,
              638.8872743678437
            ],
            [
              1902.988660921681,
              648.1463589491402
            ],
            [
              1898.3732514237586,
              657.9048224398401
            ],
            [
              1894.7365630694571,
              668.0686855020091
            ],
            [
              1892.1136191556448,
              678.5400645782258
            ],
            [
              1890.5296800660583,
              689.2181145637483
            ],
            [
              1890.0,
              700.0
            ],
            [
              1890.5296800660583,
              710.7818854362516
            ],
            [
              1892.1136191556448,
              721.4599354217742
            ],
            [
              1894.7365630694571,
              731.9313144979908
            ],
            [
              1898.3732514237583,
              742.0951775601599
            ],
            [
              1902.988660921681,
              751.8536410508598
            ],
            [
              1908.53834264672,
              761.1127256321562
            ],
            [
              1914.9688501300989,
              769.783261258001
            ],
            [
              1922.2182540694798,
              777.7817459305202
            ],
            [
              1930.216738741999,
              785.031149869901
            ],
            [
              1938.8872743678437,
              791.46165735328
            ],
            [
              1948.1463589491402,
              797.011339078319
            ],
            [
              1957.90482243984,
              801.6267485762415
            ],
            [
              1968.0686855020092,
              805.263436930543
            ],
            [
              1978.5400645782258,
              807.8863808443554
            ],
            [
              1989.2181145637483,
              809.4703199339417
            ],
            [
              2000.0,
              810.0
            ],
            [
              2010.7818854362515,
              809.4703199339417
            ],
            [
              2021.4599354217742,
              807.8863808443554
            ],
            [
              2031.9313144979908,
              805.263436930543
            ],
            [
              2042.09517756016,
              801.6267485762415
            ],
            [
              2051.8536410508596,
              797.011339078319
            ],
            [
              2061.112725632156,
              791.46165735328
            ],
            [
              2069.783261258001,
              785.031149869901
            ],
            [
              2077.78174593052,
              777.7817459305203
            ],
            [
              2085.031149869901,
              769.7832612580011
            ],
            [
              2091.46165735328,
              761.1127256321563
            ],
            [
              2097.011339078319,
              751.8536410508598
            ],
            [
              2101.6267485762414,
              742.09517756016
            ],
            [
              2105.263436930543,
              731.9313144979909
            ],
            [
              2107.8863808443552,
              721.4599354217742
            ],
            [
              2109.4703199339415,
              710.7818854362516
            ],
            [
              2110.0,
              700.0
            ],
            [
              2109.4703199339415,
              689.2181145637484
            ],
            [
              2107.8863808443552,
              678.5400645782258
            ],
            [
              2105.263436930543,
              668.0686855020091
            ]
          ]
        ]
      }
    },
    {
      "type": "Feature",
      "properties": {
        "id": "ps_001",
        "layer": "public_space",
        "space_type": "plaza",
        "source_type": "design_model",
        "confidence": 0.8,
        "geometry_role": "design_layer",
        "area_sqm": 53007.669490226384
      },
      "geometry": {
        "type": "Polygon",
        "coordinates": [
          [
            [
              1120.1043392264673,
              1350.2511537925384
            ],
            [
              1114.649764365286,
              1338.7184242126202
            ],
            [
              1108.091049599331,
              1327.7758697074516
            ],
            [
              1100.4913589371558,
              1317.528873058726
            ],
            [
              1091.9238815542512,
              1308.0761184457488
            ],
            [
              1082.471126941274,
              1299.5086410628442
            ],
            [
              1072.2241302925484,
              1291.908950400669
            ],
            [
              1061.2815757873798,
              1285.350235634714
            ],
            [
              1049.7488462074616,
              1279.8956607735327
            ],
            [
              1037.73700804308,
              1275.5977563548129
            ],
            [
              1025.3617418620968,
              1272.49791354758
            ],
            [
              1012.7422282428429,
              1270.6259855326143
            ],
            [
              1000.0,
              1270.0
            ],
            [
              987.2577717571571,
              1270.6259855326143
            ],
            [
              974.6382581379033,
              1272.49791354758
            ],
            [
              962.2629919569199,
              1275.5977563548129
            ],
            [
              950.2511537925384,
              1279.8956607735327
            ],
            [
              938.7184242126203,
              1285.350235634714
            ],
            [
              927.7758697074518,
              1291.908950400669
            ],
            [
              917.528873058726,
              1299.5086410628442
            ],
            [
              908.0761184457489,
              1308.0761184457488
            ],
            [
              899.5086410628442,
              1317.528873058726
            ],
            [
              891.9089504006691,
              1327.7758697074516
            ],
            [
              885.3502356347138,
              1338.7184242126202
            ],
            [
              879.8956607735328,
              1350.2511537925384
            ],
            [
              875.5977563548129,
              1362.26299195692
            ],
            [
              872.4979135475801,
              1374.6382581379032
            ],
            [
              870.6259855326144,
              1387.2577717571571
            ],
            [
              870.0,
              1400.0
            ],
            [
              870.6259855326144,
              1412.7422282428429
            ],
            [
              872.4979135475801,
              1425.3617418620968
            ],
            [
              875.5977563548129,
              1437.73700804308
            ],
            [
              879.8956607735327,
              1449.7488462074616
            ],
            [
              885.3502356347138,
              1461.2815757873798
            ],
            [
              891.908950400669,
              1472.2241302925484
            ],
            [
              899.5086410628442,
              1482.471126941274
            ],
            [
              908.0761184457488,
              1491.9238815542512
            ],
            [
              917.528873058726,
              1500.4913589371558
            ],
            [
              927.7758697074518,
              1508.091049599331
            ],
            [
              938.7184242126202,
              1514.649764365286
            ],
            [
              950.2511537925383,
              1520.1043392264673
            ],
            [
              962.2629919569199,
              1524.4022436451871
            ],
            [
              974.6382581379032,
              1527.50208645242
            ],
            [
              987.2577717571571,
              1529.3740144673857
            ],
            [
              1000.0,
              1530.0
            ],
            [
              1012.7422282428428,
              1529.3740144673857
            ],
            [
              1025.3617418620968,
              1527.50208645242
            ],
            [
              1037.73700804308,
              1524.4022436451871
            ],
            [
              1049.7488462074616,
              1520.1043392264673
            ],
            [
              1061.2815757873798,
              1514.649764365286
            ],
            [
              1072.2241302925481,
              1508.091049599331
            ],
            [
              1082.471126941274,
              1500.4913589371558
            ],
            [
              1091.9238815542512,
              1491.9238815542512
            ],
            [
              1100.4913589371558,
              1482.471126941274
            ],
            [
              1108.091049599331,
              1472.2241302925484
            ],
            [
              1114.649764365286,
              1461.2815757873798
            ],
            [
              1120.1043392264673,
              1449.7488462074618
            ],
            [
              1124.4022436451871,
              1437.73700804308
            ],
            [
              1127.50208645242,
              1425.3617418620968
            ],
            [
              1129.3740144673857,
              1412.7422282428429
            ],
            [
              1130.0,
              1400.0
            ],
            [
              1129.3740144673857,
              1387.2577717571571
            ],
            [
              1127.50208645242,
              1374.6382581379032
            ],
            [
              1124.4022436451871,
              1362.26299195692
            ],
            [
              1120.1043392264673,
              1350.2511537925384
            ]
          ]
        ]
      }
    },
    {
      "type": "Feature",
      "properties": {
        "id": "ps_002",
        "layer": "public_space",
        "space_type": "plaza",
        "source_type": "design_model",
        "confidence": 0.8,
        "geometry_role": "design_layer",
        "area_sqm": 25406.04277342212
      },
      "geometry": {
        "type": "Polygon",
        "coordinates": [
          [
            [
              1683.1491579260157,
              1365.5584910871419
            ],
            [
              1679.372913791352,
              1357.5742936856602
            ],
            [
              1674.832265107229,
              1349.9986790282358
            ],
            [
              1669.5709408026464,
              1342.9046044252718
            ],
            [
              1663.6396103067893,
              1336.3603896932107
            ],
            [
              1657.0953955747282,
              1330.4290591973536
            ],
            [
              1650.0013209717642,
              1325.167734892771
            ],
            [
              1642.4257063143398,
              1320.627086208648
            ],
            [
              1634.4415089128581,
              1316.8508420739843
            ],
            [
              1626.1256209529015,
              1313.8753697841012
            ],
            [
              1617.5581289814515,
              1311.7293247637092
            ],
            [
              1608.8215426296604,
              1310.4333745995023
            ],
            [
              1600.0,
              1310.0
            ],
            [
              1591.1784573703396,
              1310.4333745995023
            ],
            [
              1582.4418710185485,
              1311.7293247637092
            ],
            [
              1573.8743790470985,
              1313.8753697841012
            ],
            [
              1565.5584910871419,
              1316.8508420739843
            ],
            [
              1557.5742936856602,
              1320.627086208648
            ],
            [
              1549.9986790282358,
              1325.167734892771
            ],
            [
              1542.9046044252718,
              1330.4290591973536
            ],
            [
              1536.3603896932107,
              1336.3603896932107
            ],
            [
              1530.4290591973536,
              1342.9046044252718
            ],
            [
              1525.167734892771,
              1349.9986790282358
            ],
            [
              1520.627086208648,
              1357.5742936856602
            ],
            [
              1516.8508420739843,
              1365.5584910871419
            ],
            [
              1513.8753697841012,
              1373.8743790470985
            ],
            [
              1511.7293247637092,
              1382.4418710185485
            ],
            [
              1510.4333745995023,
              1391.1784573703396
            ],
            [
              1510.0,
              1400.0
            ],
            [
              1510.4333745995023,
              1408.8215426296604
            ],
            [
              1511.7293247637092,
              1417.5581289814515
            ],
            [
              1513.8753697841012,
              1426.1256209529015
            ],
            [
              1516.8508420739843,
              1434.4415089128581
            ],
            [
              1520.627086208648,
              1442.4257063143398
            ],
            [
              1525.167734892771,
              1450.0013209717642
            ],
            [
              1530.4290591973536,
              1457.0953955747282
            ],
            [
              1536.3603896932107,
              1463.6396103067893
            ],
            [
              1542.9046044252718,
              1469.5709408026464
            ],
            [
              1549.9986790282358,
              1474.832265107229
            ],
            [
              1557.5742936856602,
              1479.372913791352
            ],
            [
              1565.5584910871419,
              1483.1491579260157
            ],
            [
              1573.8743790470983,
              1486.1246302158988
            ],
            [
              1582.4418710185485,
              1488.2706752362908
            ],
            [
              1591.1784573703396,
              1489.5666254004977
            ],
            [
              1600.0,
              1490.0
            ],
            [
              1608.8215426296604,
              1489.5666254004977
            ],
            [
              1617.5581289814515,
              1488.2706752362908
            ],
            [
              1626.1256209529015,
              1486.1246302158988
            ],
            [
              1634.4415089128581,
              1483.1491579260157
            ],
            [
              1642.4257063143398,
              1479.372913791352
            ],
            [
              1650.0013209717642,
              1474.832265107229
            ],
            [
              1657.0953955747282,
              1469.5709408026464
            ],
            [
              1663.6396103067893,
              1463.6396103067893
            ],
            [
              1669.5709408026462,
              1457.0953955747282
            ],
            [
              1674.832265107229,
              1450.0013209717642
            ],
            [
              1679.372913791352,
              1442.4257063143398
            ],
            [
              1683.1491579260157,
              1434.4415089128581
            ],
            [
              1686.1246302158988,
              1426.1256209529017
            ],
            [
              1688.2706752362908,
              1417.5581289814515
            ],
            [
              1689.5666254004977,
              1408.8215426296604
            ],
            [
              1690.0,
              1400.0
            ],
            [
              1689.5666254004977,
              1391.1784573703396
            ],
            [
              1688.2706752362908,
              1382.4418710185485
            ],
            [
              1686.1246302158988,
              1373.8743790470985
            ],
            [
              1683.1491579260157,
              1365.5584910871419
            ]
          ]
        ]
      }
    },
    {
      "type": "Feature",
      "properties": {
        "id": "ps_003",
        "layer": "public_space",
        "space_type": "plaza",
        "source_type": "design_model",
        "confidence": 0.8,
        "geometry_role": "design_layer",
        "area_sqm": 125461.93962183756
      },
      "geometry": {
        "type": "Polygon",
        "coordinates": [
          [
            [
              2191.3880671464417,
              1341.9430645491075
            ],
            [
              2184.7759065022574,
              1323.4633135269821
            ],
            [
              2176.384252869671,
              1305.7206526348004
            ],
            [
              2166.293922460509,
              1288.8859533960795
            ],
            [
              2154.6020906725475,
              1273.1213431672709
            ],
            [
              2141.4213562373097,
              1258.5786437626905
            ],
            [
              2126.878656832729,
              1245.3979093274527
            ],
            [
              2111.1140466039205,
              1233.706077539491
            ],
            [
              2094.2793473651996,
              1223.615747130329
            ],
            [
              2076.536686473018,
              1215.2240934977426
            ],
            [
              2058.0569354508925,
              1208.6119328535583
            ],
            [
              2039.0180644032257,
              1203.842943919354
            ],
            [
              2019.603428065912,
              1200.9630546655605
            ],
            [
              2000.0,
              1200.0
            ],
            [
              1980.396571934088,
              1200.9630546655605
            ],
            [
              1960.9819355967743,
              1203.842943919354
            ],
            [
              1941.9430645491075,
              1208.6119328535583
            ],
            [
              1923.4633135269821,
              1215.2240934977426
            ],
            [
              1905.7206526348004,
              1223.615747130329
            ],
            [
              1888.8859533960797,
              1233.706077539491
            ],
            [
              1873.1213431672709,
              1245.3979093274525
            ],
            [
              1858.5786437626905,
              1258.5786437626905
            ],
            [
              1845.3979093274527,
              1273.1213431672709
            ],
            [
              1833.706077539491,
              1288.8859533960795
            ],
            [
              1823.615747130329,
              1305.7206526348004
            ],
            [
              1815.2240934977426,
              1323.4633135269821
            ],
            [
              1808.6119328535583,
              1341.9430645491075
            ],
            [
              1803.842943919354,
              1360.9819355967743
            ],
            [
              1800.9630546655605,
              1380.396571934088
            ],
            [
              1800.0,
              1400.0
            ],
            [
              1800.9630546655605,
              1419.603428065912
            ],
            [
              1803.842943919354,
              1439.0180644032257
            ],
            [
              1808.6119328535583,
              1458.0569354508925
            ],
            [
              1815.2240934977426,
              1476.5366864730179
            ],
            [
              1823.615747130329,
              1494.2793473651996
            ],
            [
              1833.706077539491,
              1511.1140466039203
            ],
            [
              1845.3979093274525,
              1526.8786568327291
            ],
            [
              1858.5786437626905,
              1541.4213562373095
            ],
            [
              1873.1213431672709,
              1554.6020906725473
            ],
            [
              1888.8859533960795,
              1566.293922460509
            ],
            [
              1905.7206526348004,
              1576.384252869671
            ],
            [
              1923.463313526982,
              1584.7759065022574
            ],
            [
              1941.9430645491075,
              1591.3880671464417
            ],
            [
              1960.9819355967743,
              1596.157056080646
            ],
            [
              1980.396571934088,
              1599.0369453344395
            ],
            [
              2000.0,
              1600.0
            ],
            [
              2019.603428065912,
              1599.0369453344395
            ],
            [
              2039.0180644032257,
              1596.157056080646
            ],
            [
              2058.0569354508925,
              1591.3880671464417
            ],
            [
              2076.536686473018,
              1584.7759065022574
            ],
            [
              2094.2793473651996,
              1576.384252869671
            ],
            [
              2111.1140466039205,
              1566.293922460509
            ],
            [
              2126.878656832729,
              1554.6020906725473
            ],
            [
              2141.4213562373093,
              1541.4213562373095
            ],
            [
              2154.602090672547,
              1526.8786568327291
            ],
            [
              2166.293922460509,
              1511.1140466039205
            ],
            [
              2176.384252869671,
              1494.2793473651996
            ],
            [
              2184.7759065022574,
              1476.536686473018
            ],
            [
              2191.3880671464417,
              1458.0569354508925
            ],
            [
              2196.1570560806463,
              1439.0180644032257
            ],
            [
              2199.036945334439,
              1419.603428065912
            ],
            [
              2200.0,
              1400.0
            ],
            [
              2199.036945334439,
              1380.396571934088
            ],
            [
              2196.1570560806463,
              1360.9819355967743
            ],
            [
              2191.3880671464417,
              1341.9430645491075
            ]
          ]
        ]
      }
    },
    {
      "type": "Feature",
      "properties": {
        "id": "ps_004",
        "layer": "public_space",
        "space_type": "plaza",
        "source_type": "design_model",
        "confidence": 0.8,
        "geometry_role": "design_layer",
        "area_sqm": 61476.35041470038
      },
      "geometry": {
        "type": "Polygon",
        "coordinates": [
          [
            [
              3329.34313455158,
              1346.4243194688875
            ],
            [
              3323.46897700877,
              1334.0044568443604
            ],
            [
              3316.405745722356,
              1322.2201673772556
            ],
            [
              3308.221463470783,
              1311.1849402170897
            ],
            [
              3298.9949493661165,
              1301.0050506338835
            ],
            [
              3288.8150597829103,
              1291.7785365292168
            ],
            [
              3277.7798326227444,
              1283.5942542776436
            ],
            [
              3265.9955431556396,
              1276.5310229912302
            ],
            [
              3253.5756805311125,
              1270.65686544842
            ],
            [
              3240.639854815625,
              1266.0283529974909
            ],
            [
              3227.312645082258,
              1262.6900607435477
            ],
            [
              3213.7223996461385,
              1260.6741382658925
            ],
            [
              3200.0,
              1260.0
            ],
            [
              3186.2776003538615,
              1260.6741382658925
            ],
            [
              3172.687354917742,
              1262.6900607435477
            ],
            [
              3159.360145184375,
              1266.0283529974909
            ],
            [
              3146.4243194688875,
              1270.65686544842
            ],
            [
              3134.0044568443604,
              1276.5310229912302
            ],
            [
              3122.2201673772556,
              1283.5942542776436
            ],
            [
              3111.1849402170897,
              1291.7785365292168
            ],
            [
              3101.0050506338835,
              1301.0050506338835
            ],
            [
              3091.778536529217,
              1311.1849402170897
            ],
            [
              3083.594254277644,
              1322.2201673772556
            ],
            [
              3076.53102299123,
              1334.0044568443602
            ],
            [
              3070.65686544842,
              1346.4243194688875
            ],
            [
              3066.028352997491,
              1359.3601451843754
            ],
            [
              3062.6900607435477,
              1372.687354917742
            ],
            [
              3060.6741382658925,
              1386.2776003538615
            ],
            [
              3060.0,
              1400.0
            ],
            [
              3060.6741382658925,
              1413.7223996461385
            ],
            [
              3062.6900607435477,
              1427.3126450822579
            ],
            [
              3066.028352997491,
              1440.6398548156246
            ],
            [
              3070.65686544842,
              1453.5756805311125
            ],
            [
              3076.53102299123,
              1465.9955431556396
            ],
            [
              3083.594254277644,
              1477.7798326227444
            ],
            [
              3091.7785365292166,
              1488.8150597829103
            ],
            [
              3101.0050506338835,
              1498.9949493661165
            ],
            [
              3111.1849402170897,
              1508.2214634707832
            ],
            [
              3122.2201673772556,
              1516.4057457223564
            ],
            [
              3134.0044568443604,
              1523.4689770087698
            ],
            [
              3146.4243194688875,
              1529.34313455158
            ],
            [
              3159.360145184375,
              1533.9716470025091
            ],
            [
              3172.687354917742,
              1537.3099392564523
            ],
            [
              3186.2776003538615,
              1539.3258617341075
            ],
            [
              3200.0,
              1540.0
            ],
            [
              3213.7223996461385,
              1539.3258617341075
            ],
            [
              3227.312645082258,
              1537.3099392564523
            ],
            [
              3240.639854815625,
              1533.9716470025091
            ],
            [
              3253.5756805311125,
              1529.34313455158
            ],
            [
              3265.9955431556396,
              1523.4689770087698
            ],
            [
              3277.7798326227444,
              1516.4057457223564
            ],
            [
              3288.8150597829103,
              1508.2214634707832
            ],
            [
              3298.9949493661165,
              1498.9949493661168
            ],
            [
              3308.221463470783,
              1488.8150597829103
            ],
            [
              3316.405745722356,
              1477.7798326227444
            ],
            [
              3323.46897700877,
              1465.9955431556398
            ],
            [
              3329.34313455158,
              1453.5756805311125
            ],
            [
              3333.971647002509,
              1440.6398548156249
            ],
            [
              3337.3099392564523,
              1427.312645082258
            ],
            [
              3339.3258617341075,
              1413.7223996461385
            ],
            [
              3340.0,
              1400.0
            ],
            [
              3339.3258617341075,
              1386.2776003538615
            ],
            [
              3337.3099392564523,
              1372.6873549177421
            ],
            [
              3333.971647002509,
              1359.3601451843754
            ],
            [
              3329.34313455158,
              1346.4243194688875
            ]
          ]
        ]
      }
    },
    {
      "type": "Feature",
      "properties": {
        "id": "ps_005",
        "layer": "public_space",
        "space_type": "plaza",
        "source_type": "design_model",
        "confidence": 0.8,
        "geometry_role": "design_layer",
        "area_sqm": 37952.23673560584
      },
      "geometry": {
        "type": "Polygon",
        "coordinates": [
          [
            [
              2101.6267485762414,
              2057.9048224398402
            ],
            [
              2097.011339078319,
              2048.1463589491404
            ],
            [
              2091.46165735328,
              2038.8872743678437
            ],
            [
              2085.031149869901,
              2030.216738741999
            ],
            [
              2077.78174593052,
              2022.2182540694798
            ],
            [
              2069.783261258001,
              2014.9688501300989
            ],
            [
              2061.112725632156,
              2008.5383426467201
            ],
            [
              2051.8536410508596,
              2002.988660921681
            ],
            [
              2042.09517756016,
              1998.3732514237586
            ],
            [
              2031.9313144979908,
              1994.7365630694571
            ],
            [
              2021.4599354217742,
              1992.1136191556448
            ],
            [
              2010.7818854362517,
              1990.5296800660583
            ],
            [
              2000.0,
              1990.0
            ],
            [
              1989.2181145637483,
              1990.5296800660583
            ],
            [
              1978.5400645782258,
              1992.1136191556448
            ],
            [
              1968.0686855020092,
              1994.7365630694571
            ],
            [
              1957.9048224398402,
              1998.3732514237586
            ],
            [
              1948.1463589491402,
              2002.988660921681
            ],
            [
              1938.8872743678437,
              2008.53834264672
            ],
            [
              1930.216738741999,
              2014.9688501300989
            ],
            [
              1922.2182540694798,
              2022.2182540694798
            ],
            [
              1914.9688501300989,
              2030.216738741999
            ],
            [
              1908.53834264672,
              2038.8872743678437
            ],
            [
              1902.988660921681,
              2048.1463589491404
            ],
            [
              1898.3732514237586,
              2057.9048224398402
            ],
            [
              1894.7365630694571,
              2068.068685502009
            ],
            [
              1892.1136191556448,
              2078.540064578226
            ],
            [
              1890.5296800660583,
              2089.2181145637483
            ],
            [
              1890.0,
              2100.0
            ],
            [
              1890.5296800660583,
              2110.7818854362517
            ],
            [
              1892.1136191556448,
              2121.459935421774
            ],
            [
              1894.7365630694571,
              2131.931314497991
            ],
            [
              1898.3732514237583,
              2142.0951775601598
            ],
            [
              1902.988660921681,
              2151.8536410508596
            ],
            [
              1908.53834264672,
              2161.112725632156
            ],
            [
              1914.9688501300989,
              2169.783261258001
            ],
            [
              1922.2182540694798,
              2177.78174593052
            ],
            [
              1930.216738741999,
              2185.031149869901
            ],
            [
              1938.8872743678437,
              2191.46165735328
            ],
            [
              1948.1463589491402,
              2197.011339078319
            ],
            [
              1957.90482243984,
              2201.6267485762414
            ],
            [
              1968.0686855020092,
              2205.263436930543
            ],
            [
              1978.5400645782258,
              2207.8863808443552
            ],
            [
              1989.2181145637483,
              2209.4703199339415
            ],
            [
              2000.0,
              2210.0
            ],
            [
              2010.7818854362515,
              2209.4703199339415
            ],
            [
              2021.4599354217742,
              2207.8863808443552
            ],
            [
              2031.9313144979908,
              2205.263436930543
            ],
            [
              2042.09517756016,
              2201.6267485762414
            ],
            [
              2051.8536410508596,
              2197.011339078319
            ],
            [
              2061.112725632156,
              2191.46165735328
            ],
            [
              2069.783261258001,
              2185.031149869901
            ],
            [
              2077.78174593052,
              2177.78174593052
            ],
            [
              2085.031149869901,
              2169.783261258001
            ],
            [
              2091.46165735328,
              2161.112725632156
            ],
            [
              2097.011339078319,
              2151.8536410508596
            ],
            [
              2101.6267485762414,
              2142.0951775601598
            ],
            [
              2105.263436930543,
              2131.931314497991
            ],
            [
              2107.8863808443552,
              2121.459935421774
            ],
            [
              2109.4703199339415,
              2110.7818854362517
            ],
            [
              2110.0,
              2100.0
            ],
            [
              2109.4703199339415,
              2089.2181145637483
            ],
            [
              2107.8863808443552,
              2078.540064578226
            ],
            [
              2105.263436930543,
              2068.068685502009
            ],
            [
              2101.6267485762414,
              2057.9048224398402
            ]
          ]
        ]
      }
    }
  ]
}